{
  "type": "FeatureCollection",
  "features": [
    {
      "type": "Feature",
      "properties": {
        "norad_id": 44873,
        "name": "CSG-1",
        "group": "resource",
        "lat": -46.25909866892849,
        "lon": -25.75317518660503,
        "alt_km": 630.137235342736,
        "timestamp": "2025-12-07T03:52:32.127836+00:00",
        "meta_object_name": "CSG-1",
        "meta_object_id": "2019-092A",
        "meta_epoch": "2025-12-06T13:53:37.302144",
        "meta_mean_motion": 14.82151079,
        "meta_eccentricity": 0.00014568,
        "meta_inclination": 97.8812,
        "meta_ra_of_asc_node": 161.9958,
        "meta_arg_of_pericenter": 86.3505,
        "meta_mean_anomaly": 273.7874,
        "meta_ephemeris_type": 0,
        "meta_classification_type": "U",
        "meta_norad_cat_id": 44873,
        "meta_element_set_no": 999,
        "meta_rev_at_epoch": 32294,
        "meta_bstar": 0.0001602306,
        "meta_mean_motion_dot": 1.223e-05,
        "meta_mean_motion_ddot": 0,
        "tle_line1": "1 44873U 19092A   25340.57890396  .00001223  00000+0  16023-3 0  9990",
        "tle_line2": "2 44873  97.8812 161.9958 0001456  86.3505 273.7874 14.82151079322941"
      },
      "geometry": {
        "type": "Point",
        "coordinates": [
          -25.75317518660503,
          -46.25909866892849
        ]
      }
    },
    {
      "type": "Feature",
      "properties": {
        "norad_id": 46277,
        "name": "NEMO-HD",
        "group": "resource",
        "lat": -58.15850263071822,
        "lon": 52.11328575512653,
        "alt_km": 453.55602925245876,
        "timestamp": "2025-12-07T03:52:32.127847+00:00",
        "meta_object_name": "NEMO-HD",
        "meta_object_id": "2020-061F",
        "meta_epoch": "2025-12-06T15:39:23.475456",
        "meta_mean_motion": 15.40143215,
        "meta_eccentricity": 0.00022037,
        "meta_inclination": 97.2218,
        "meta_ra_of_asc_node": 39.8288,
        "meta_arg_of_pericenter": 63.5735,
        "meta_mean_anomaly": 296.5737,
        "meta_ephemeris_type": 0,
        "meta_classification_type": "U",
        "meta_norad_cat_id": 46277,
        "meta_element_set_no": 999,
        "meta_rev_at_epoch": 29230,
        "meta_bstar": 0.00041896208,
        "meta_mean_motion_dot": 0.00016729,
        "meta_mean_motion_ddot": 0,
        "tle_line1": "1 46277U 20061F   25340.65235504  .00016729  00000+0  41896-3 0  9994",
        "tle_line2": "2 46277  97.2218  39.8288 0002203  63.5735 296.5737 15.40143215292302"
      },
      "geometry": {
        "type": "Point",
        "coordinates": [
          52.11328575512653,
          -58.15850263071822
        ]
      }
    },
    {
      "type": "Feature",
      "properties": {
        "norad_id": 46984,
        "name": "SENTINEL-6A",
        "group": "resource",
        "lat": -53.525897235999395,
        "lon": 136.91833762918426,
        "alt_km": 1338.6133458760096,
        "timestamp": "2025-12-07T03:52:32.127858+00:00",
        "meta_object_name": "SENTINEL-6A",
        "meta_object_id": "2020-086A",
        "meta_epoch": "2025-12-06T15:04:47.053632",
        "meta_mean_motion": 12.80930339,
        "meta_eccentricity": 0.00077411,
        "meta_inclination": 66.0392,
        "meta_ra_of_asc_node": 175.0019,
        "meta_arg_of_pericenter": 269.1919,
        "meta_mean_anomaly": 90.8209,
        "meta_ephemeris_type": 0,
        "meta_classification_type": "U",
        "meta_norad_cat_id": 46984,
        "meta_element_set_no": 999,
        "meta_rev_at_epoch": 23566,
        "meta_bstar": 8.3183971e-05,
        "meta_mean_motion_dot": -4.2e-07,
        "meta_mean_motion_ddot": 0,
        "tle_line1": "1 46984U 20086A   25340.62832238 -.00000042  00000+0  83184-4 0  9999",
        "tle_line2": "2 46984  66.0392 175.0019 0007741 269.1919  90.8209 12.80930339235666"
      },
      "geometry": {
        "type": "Point",
        "coordinates": [
          136.91833762918426,
          -53.525897235999395
        ]
      }
    },
    {
      "type": "Feature",
      "properties": {
        "norad_id": 48079,
        "name": "GAOFEN-12 02",
        "group": "resource",
        "lat": 22.746015104118484,
        "lon": 158.5685888089129,
        "alt_km": 625.2208483040376,
        "timestamp": "2025-12-07T03:52:32.127869+00:00",
        "meta_object_name": "GAOFEN-12 02",
        "meta_object_id": "2021-026A",
        "meta_epoch": "2025-12-06T14:11:40.067808",
        "meta_mean_motion": 14.80663894,
        "meta_eccentricity": 0.00033863,
        "meta_inclination": 97.9848,
        "meta_ra_of_asc_node": 334.6276,
        "meta_arg_of_pericenter": 113.2364,
        "meta_mean_anomaly": 246.9205,
        "meta_ephemeris_type": 0,
        "meta_classification_type": "U",
        "meta_norad_cat_id": 48079,
        "meta_element_set_no": 999,
        "meta_rev_at_epoch": 25326,
        "meta_bstar": 0.00014075318,
        "meta_mean_motion_dot": 1.029e-05,
        "meta_mean_motion_ddot": 0,
        "tle_line1": "1 48079U 21026A   25340.59143597  .00001029  00000+0  14075-3 0  9997",
        "tle_line2": "2 48079  97.9848 334.6276 0003386 113.2364 246.9205 14.80663894253261"
      },
      "geometry": {
        "type": "Point",
        "coordinates": [
          158.5685888089129,
          22.746015104118484
        ]
      }
    },
    {
      "type": "Feature",
      "properties": {
        "norad_id": 48268,
        "name": "PLEIADES NEO 3",
        "group": "resource",
        "lat": -23.687670039274902,
        "lon": -129.8078667337806,
        "alt_km": 629.879159011798,
        "timestamp": "2025-12-07T03:52:32.127880+00:00",
        "meta_object_name": "PLEIADES NEO 3",
        "meta_object_id": "2021-034A",
        "meta_epoch": "2025-12-06T15:36:47.653056",
        "meta_mean_motion": 14.81675652,
        "meta_eccentricity": 0.0001318,
        "meta_inclination": 97.895,
        "meta_ra_of_asc_node": 53.1788,
        "meta_arg_of_pericenter": 95.4164,
        "meta_mean_anomaly": 264.72,
        "meta_ephemeris_type": 0,
        "meta_classification_type": "U",
        "meta_norad_cat_id": 48268,
        "meta_element_set_no": 999,
        "meta_rev_at_epoch": 24914,
        "meta_bstar": 2.854346e-05,
        "meta_mean_motion_dot": 1.73e-06,
        "meta_mean_motion_ddot": 0,
        "tle_line1": "1 48268U 21034A   25340.65055154  .00000173  00000+0  28543-4 0  9999",
        "tle_line2": "2 48268  97.8950  53.1788 0001318  95.4164 264.7200 14.81675652249148"
      },
      "geometry": {
        "type": "Point",
        "coordinates": [
          -129.8078667337806,
          -23.687670039274902
        ]
      }
    },
    {
      "type": "Feature",
      "properties": {
        "norad_id": 49070,
        "name": "PLEIADES NEO 4",
        "group": "resource",
        "lat": 23.49098318324579,
        "lon": 50.22031596363121,
        "alt_km": 623.3034110377139,
        "timestamp": "2025-12-07T03:52:32.127891+00:00",
        "meta_object_name": "PLEIADES NEO 4",
        "meta_object_id": "2021-073E",
        "meta_epoch": "2025-12-06T14:48:09.315936",
        "meta_mean_motion": 14.81672576,
        "meta_eccentricity": 0.00012979,
        "meta_inclination": 97.8949,
        "meta_ra_of_asc_node": 53.1411,
        "meta_arg_of_pericenter": 97.0251,
        "meta_mean_anomaly": 263.1109,
        "meta_ephemeris_type": 0,
        "meta_classification_type": "U",
        "meta_norad_cat_id": 49070,
        "meta_element_set_no": 999,
        "meta_rev_at_epoch": 23285,
        "meta_bstar": -1.1095872e-05,
        "meta_mean_motion_dot": -1.39e-06,
        "meta_mean_motion_ddot": 0,
        "tle_line1": "1 49070U 21073E   25340.61677449 -.00000139  00000+0 -11096-4 0  9996",
        "tle_line2": "2 49070  97.8949  53.1411 0001297  97.0251 263.1109 14.81672576232855"
      },
      "geometry": {
        "type": "Point",
        "coordinates": [
          50.22031596363121,
          23.49098318324579
        ]
      }
    },
    {
      "type": "Feature",
      "properties": {
        "norad_id": 49260,
        "name": "LANDSAT 9",
        "group": "resource",
        "lat": 6.928657500455022,
        "lon": -129.6415099530059,
        "alt_km": 704.3892326739806,
        "timestamp": "2025-12-07T03:52:32.127902+00:00",
        "meta_object_name": "LANDSAT 9",
        "meta_object_id": "2021-088A",
        "meta_epoch": "2025-12-06T15:32:54.264192",
        "meta_mean_motion": 14.57120995,
        "meta_eccentricity": 0.00010945,
        "meta_inclination": 98.2101,
        "meta_ra_of_asc_node": 48.847,
        "meta_arg_of_pericenter": 93.836,
        "meta_mean_anomaly": 266.2963,
        "meta_ephemeris_type": 0,
        "meta_classification_type": "U",
        "meta_norad_cat_id": 49260,
        "meta_element_set_no": 999,
        "meta_rev_at_epoch": 22296,
        "meta_bstar": 0.00021199334,
        "meta_mean_motion_dot": 9.1e-06,
        "meta_mean_motion_ddot": 0,
        "tle_line1": "1 49260U 21088A   25340.64785028  .00000910  00000+0  21199-3 0  9998",
        "tle_line2": "2 49260  98.2101  48.8470 0001094  93.8360 266.2963 14.57120995222966"
      },
      "geometry": {
        "type": "Point",
        "coordinates": [
          -129.6415099530059,
          6.928657500455022
        ]
      }
    }
  ]
}